    PK14X010  2030 06 16.7056  1.802694  0.709485   33.8729   61.5599   26.0449  20221111  15.0  4.0  P/2014 X1 (Elenin)                                       MPC 94281
    PK15A030  2015 02 17.1865  1.169081  0.850402  249.4428  277.3108  172.5402  20221111  20.0  4.0  P/2015 A3 (PANSTARRS)                                    MPC 92275
    PK15B010  2015 09  9.7860  6.012254  0.366559  188.8815  352.9261   18.0518  20221111   8.5  4.0  P/2015 B1 (PANSTARRS)                                    MPC 99270
    PK15B040  2015 02  2.3549  3.743656  0.560488  227.2704  266.0574    1.7630  20221111  11.0  4.0  P/2015 B4 (Lemmon-PANSTARRS)                             MPC109141
    PK15C010  2015 04 22.7150  2.887466  0.560862  178.1194  348.7939   13.9157  20221111  12.5  4.0  P/2015 C1 (TOTAS-Gibbs)                                  MPC101096
    PK15D050  2014 03 31.8595  4.568562  0.489818   39.6727   74.0708   20.5314  20221111   9.0  4.0  P/2015 D5 (Kowalski)                                     MPC109141
    PK15D060  2015 06 26.5105  4.557990  0.361316  125.0229   45.8681   20.2055  20221111  10.5  4.0  P/2015 D6 (Lemmon-PANSTARRS)                             MPC 96866
    PK15H16G  2024 10 19.8945  3.094106  0.352183   47.5940   57.5210   18.8400  20221111  12.5  4.0  P/2015 HG16 (PANSTARRS)                                  MPEC 2021-P47
    PK15K050  2015 05 31.9631  3.013492  0.551973  106.3268  134.2098   39.9436  20221111  13.5  4.0  P/2015 K5 (PANSTARRS)                                    MPC 95213
    PK15M020  2015 09 13.4231  5.939381  0.179916  225.9652   86.5840    3.9697  20221111   8.5  4.0  P/2015 M2 (PANSTARRS)                                    MPC107684
    CK15O010  2018 02 20.2005  3.721430  1.001446   89.5436  299.8305  127.1808  20221111   6.5  4.0  C/2015 O1 (PANSTARRS)                                    MPEC 2021-P47
    PK15P040  2016 01 23.4139  2.505232  0.585693  280.6596  104.6867    8.7176  20221111  14.0  4.0  P/2015 P4 (PANSTARRS)                                    MPC 99819
    PK15PM9D  2015 08 17.8603  4.835734  0.327642  352.6794  342.6549    2.0252  20221111  11.5  2.0  P/2015 PD229 (Cameron-ISON)                              MPEC 2022-K19
    PK15Q020  2015 09  7.1479  1.833783  0.750618  244.6384  228.5269  146.5466  20221111  15.5  4.0  P/2015 Q2 (Pimentel)                                     MPC 96867
    PK15R010  2029 10  3.4531  2.150389  0.634316  300.5727   48.3312   22.6971  20221111  14.0  4.0  P/2015 R1 (PANSTARRS)                                    MPC 98562
    PK15R020  2024 12 15.4076  2.454568  0.452793  149.8503  168.5966   15.4851  20221111  14.5  4.0  P/2015 R2 (PANSTARRS)                                    MPC 95734
    PK15T030  2014 12 21.7056  2.127698  0.508181  178.6330  120.5019   13.0937            14.0  4.0  P/2015 T3 (PANSTARRS)                                    MPC 96280
    PK15T19O  2025 11 23.1777  2.916681  0.359284   89.1729  321.6307    6.5006  20221111  14.0  4.0  P/2015 TO19 (Lemmon-PANSTARRS)                           MPC102953
    PK15TK0P  2016 10 28.5688  3.370214  0.536116   82.4452    7.0196    8.7806  20221111  11.0  4.0  P/2015 TP200 (LINEAR)                                    MPC110080
    CK15V010  2017 12 16.4434  4.280689  0.998174  179.6987  197.1397  139.2308  20221111   6.5  4.0  C/2015 V1 (PANSTARRS)                                    MPC115881
    PK15W020  2015 10  4.0214  2.659765  0.635194  117.5443  294.1579   11.6097  20221111  13.0  4.0  P/2015 W2 (Catalina)                                     MPC101098
    CK15X01Y  2018 04 25.6086  7.924693  0.999863  196.1405  281.5764  148.8515  20221111   5.5  4.0  C/2015 XY1 (Lemmon)                                      MPEC 2022-OB6
    PK15X030  2026 10 21.6838  2.802061  0.439996  306.7493   77.2729   24.4018  20221111  15.0  4.0  P/2015 X3 (PANSTARRS)                                    MPEC 2022-OB6
    CK15X050  2017 12 27.2061  6.794535  0.999361   27.5456  122.3092  124.3183  20221111   7.5  4.0  C/2015 X5 (PANSTARRS)                                    MPC119995
    PK15X060  2020 10 17.1254  2.276036  0.173098  329.7832  106.9334    4.5648  20221111  16.0  4.0  P/2015 X6 (PANSTARRS)                                    MPC115881
    CK16A010  2017 11 20.7820  5.316457  0.999318   10.0929  128.1705  121.2147  20221111   6.0  4.0  C/2016 A1 (PANSTARRS)                                    MPEC 2022-O08
    PK16A020  2025 10 23.3103  3.466131  0.270839  141.2888  291.6177   26.4034  20221111  11.5  4.0  P/2016 A2 (Christensen)                                  MPC100282
    PK16A030  2017 04 26.0930  4.838444  0.386036  340.9305  187.2250    8.5108  20221111  10.0  4.0  P/2016 A3 (PANSTARRS)                                    MPEC 2022-OB6
    PK16A070  2027 06  8.2824  2.193134  0.564420  352.5365  221.4972   16.6030  20221111  16.0  4.0  P/2016 A7 (PANSTARRS)                                    MPC102098
    PK16B14A  2021 06 17.1254  1.015045  0.664621  351.9650  180.5129   18.8971  20221111  21.0  4.0  P/2016 BA14 (PANSTARRS)                                  MPC109143
    PK16G010  2021 03 21.8011  2.038285  0.210780  111.1405  204.0192   10.9711  20221111  14.0  4.0  P/2016 G1 (PANSTARRS)                                    MPEC 2021-P47
    PK16J01a  2022 02 20.8775  2.449978  0.227687   47.0416  199.8101   14.3290  20221111  16.5  4.0  P/2016 J1-A (PANSTARRS)                                  MPEC 2017-D91
    PK16J01b  2022 02 20.0876  2.450169  0.227538   46.9328  199.8149   14.3317  20221111  17.0  4.0  P/2016 J1-B (PANSTARRS)                                  MPEC 2017-A77
    CK16M010  2018 08 10.5369  2.214237  0.999981  209.9369   92.2562   90.8851  20221111   5.0  4.0  C/2016 M1 (PANSTARRS)                                    MPEC 2022-ED3
    CK16N040  2017 09 17.8569  3.196192  0.999658   55.9647  353.9901   72.6507  20221111   8.5  4.0  C/2016 N4 (MASTER)                                       MPEC 2022-OB6
    CK16N060  2018 07 17.5359  2.660141  0.997328  162.5941  298.9265  105.8564  20221111   7.0  4.0  C/2016 N6 (PANSTARRS)                                    MPEC 2021-P47
    PK16P010  2021 06 11.2064  2.273093  0.289395  270.4287  319.5452   24.4263  20221111  15.0  4.0  P/2016 P1 (PANSTARRS)                                    MPC102099
    CK16Q020  2021 05 12.3311  7.081960  1.002733   84.5550  322.3069  109.3840  20221111   6.0  4.0  C/2016 Q2 (PANSTARRS)                                    MPEC 2022-M21
    CK16Q040  2018 01 31.2928  7.095605  0.582990   99.6539  271.2961    7.2473  20221111   7.0  4.0  C/2016 Q4 (Kowalski)                                     MPC102955
    CK16R020  2018 05  9.1489  2.596972  0.994548   33.0967   80.5182   58.3180  20221111   7.0  4.0  C/2016 R2 (PANSTARRS)                                    MPEC 2021-N06
    PK16R040  2028 11 15.8347  2.792837  0.476261  174.1231  168.2615   10.8777  20221111  12.5  4.0  P/2016 R4 (Gibbs)                                        MPEC 2022-K19
    PK16S010  2017 03 16.5575  2.397727  0.710288  273.2597  227.6437   94.7268  20221111  12.0  4.0  P/2016 S1 (PANSTARRS)                                    MPC105543
    PK16W48M  2017 02 23.3306  1.768600  0.783490   36.1357   59.9308  117.5720  20221111  15.0  4.0  P/2016 WM48 (Lemmon)                                     MPC106345
    CK16X010  2019 04 27.8328  7.557130  0.994328  224.4763  256.3482   26.4577  20221111   6.0  4.0  C/2016 X1 (Lemmon)                                       MPEC 2021-P47
    CK17A05B  2018 02 14.5029  9.204445  0.996441   78.2825   42.5978   32.4642  20221111   5.5  4.0  C/2017 AB5 (PANSTARRS)                                   MPC114598
    CK17B030  2019 02  1.5951  3.928822  1.000398  284.8295    2.1750   54.1587  20221111   6.0  4.0  C/2017 B3 (LINEAR)                                       MPEC 2022-OB6
    PK17B040  2017 01  5.8178  2.800894  0.364952   11.0197  121.4578   20.0584            14.5  4.0  P/2017 B4 (PANSTARRS)                                    MPC103847
    PK17D010  2027 01 31.7973  2.718841  0.436865    7.9539   82.1878   20.7659  20221111  14.0  4.0  P/2017 D1 (Fuls)                                         MPEC 2022-OB6
    PK17D040  2016 09  5.0510  2.801835  0.628869  212.1418  264.9428   10.5472  20221111  13.0  4.0  P/2017 D4 (PANSTARRS)                                    MPEC 2022-OB6
    CK17F010  2017 11 27.9443  4.500233  1.001398   64.7216  158.7867  146.4677  20221111  10.5  4.0  C/2017 F1 (Lemmon)                                       MPC111769
    CK17F020  2017 11 25.5477  6.923346  1.001757  134.8830   38.7081   42.5585  20221111   7.5  4.0  C/2017 F2 (PANSTARRS)                                    MPC114598
    PK17G010  2016 04 27.2029  2.520347  0.653617  224.3670  249.6699    4.7830  20221111  13.5  4.0  P/2017 G1 (PANSTARRS)                                    MPC104794
    PK17G020  2017 06  9.2856  2.838115  0.647537  105.4234   79.8351   47.9592  20221111  13.0  4.0  P/2017 G2 (PANSTARRS)                                    MPC108595
    CK17K010  2018 03 17.8339  7.283194  1.003407    4.4175  225.7315  154.0218  20221111   7.0  4.0  C/2017 K1 (PANSTARRS)                                    MPC115882
    CK17K020  2022 12 19.6852  1.796889  1.000813  236.1993   88.2352   87.5629  20221111   1.5  4.0  C/2017 K2 (PANSTARRS)                                    MPEC 2022-V95
    PK17K030  2017 05 28.3559  2.350092  0.579198  253.4275  354.2931    4.2732  20221111  14.5  4.0  P/2017 K3 (Gasparovic)                                   MPEC 2021-N06
    CK17K040  2018 01  8.1314  2.661863  0.907251   15.3502  298.9177   16.6616  20221111  10.0  4.0  C/2017 K4 (ATLAS)                                        MPC114598
    CK17K050  2020 03 27.3879  7.684068  1.005235  172.0689  102.3854   82.2507  20221111   5.0  4.0  C/2017 K5 (PANSTARRS)                                    MPEC 2021-P47
